NORAD_CAT_ID,OBJECT_NAME,OBJECT_TYPE,EPOCH,MEAN_MOTION,ECCENTRICITY,INCLINATION,RA_OF_ASC_NODE,ARG_OF_PERICENTER,MEAN_ANOMALY,BSTAR,MEAN_MOTION_DOT,MEAN_MOTION_DDOT,TLE_LINE0,TLE_LINE1,TLE_LINE2,SEMIMAJOR_AXIS,PERIOD,APOGEE,PERIGEE,DECAYED
54198.0,STARLINK-5246,PAYLOAD,2023-03-24 05:04:43,15.08884789,8.91e-05,53.2169,168.902,89.6386,270.4709,0.0010399,0.00016321,0.0,0 STARLINK-5246,1 54198U 22141AT  23083.21161875  .00016321  00000-0  10399-2 0  9991,2 54198  53.2169 168.9020 0000891  89.6386 270.4709 15.08884789 22965,6917.743,95.435,540.225,538.992,0.0
54198.0,STARLINK-5246,PAYLOAD,2023-03-24 13:01:38,15.08909367,0.0001065,53.2172,167.4151,74.9173,285.1937,0.0016905,0.0002677,0.0,0 STARLINK-5246,1 54198U 22141AT  23083.54280527  .00026770  00000-0  16905-2 0  9991,2 54198  53.2172 167.4151 0001065  74.9173 285.1937 15.08909367 23016,6917.668,95.433,540.27,538.797,0.0
54198.0,STARLINK-5246,PAYLOAD,2023-03-25 04:55:29,15.08849693,0.0001408,53.2164,164.4434,114.439,245.6749,-0.00098841,-0.00015988,0.0,0 STARLINK-5246,1 54198U 22141AT  23084.20519811 -.00015988  00000-0 -98841-3 0  9997,2 54198  53.2164 164.4434 0001408 114.4390 245.6749 15.08849693 23118,6917.851,95.437,540.69,538.742,0.0
54198.0,STARLINK-5246,PAYLOAD,2023-03-25 12:52:25,15.08841527,0.0001626,53.216,162.958,103.8816,256.2357,0.0013241,0.00020849,0.0,0 STARLINK-5246,1 54198U 22141AT  23084.53640099  .00020849  00000-0  13241-2 0  9996,2 54198  53.2160 162.9580 0001626 103.8816 256.2357 15.08841527 23162,6917.876,95.437,540.866,538.616,0.0
54198.0,STARLINK-5246,PAYLOAD,2023-03-25 22:24:45,15.08811,0.0002101,53.2156,161.1735,77.5565,282.5662,0.00075557,0.00011748,0.0,0 STARLINK-5246,1 54198U 22141AT  23084.93385688  .00011748  00000-0  75557-3 0  9997,2 54198  53.2156 161.1735 0002101  77.5565 282.5662 15.08811000 23228,6917.969,95.439,541.287,538.381,0.0
54198.0,STARLINK-5246,PAYLOAD,2023-03-26 11:07:52,15.08780541,0.0001312,53.2161,158.7937,83.912,276.2021,0.0017122,0.00027022,0.0,0 STARLINK-5246,1 54198U 22141AT  23085.46379913  .00027022  00000-0  17122-2 0  9995,2 54198  53.2161 158.7937 0001312  83.9120 276.2021 15.08780541 23304,6918.062,95.441,540.835,539.019,0.0
54198.0,STARLINK-5246,PAYLOAD,2023-03-27 14:09:27,15.08853065,0.0001484,53.2161,153.7383,80.0303,280.0857,0.0021541,0.00034173,0.0,0 STARLINK-5246,1 54198U 22141AT  23086.58989886  .00034173  00000-0  21541-2 0  9990,2 54198  53.2161 153.7383 0001484  80.0303 280.0857 15.08853065 23240,6917.84,95.437,540.732,538.679,0.0
54198.0,STARLINK-5246,PAYLOAD,2023-03-28 04:27:55,15.08863239,0.0001636,53.2159,151.0613,83.4487,276.6691,0.0013428,0.00021161,0.0,0 STARLINK-5246,1 54198U 22141AT  23087.18605531  .00021161  00000-0  13428-2 0  9997,2 54198  53.2159 151.0613 0001636  83.4487 276.6691 15.08863239 23569,6917.809,95.436,540.806,538.543,0.0
54198.0,STARLINK-5246,PAYLOAD,2023-03-28 10:49:27,15.08870549,0.0001584,53.2163,149.8715,90.6958,269.4216,0.0013439,0.00021183,0.0,0 STARLINK-5246,1 54198U 22141AT  23087.45101027  .00021183  00000-0  13439-2 0  9994,2 54198  53.2163 149.8715 0001584  90.6958 269.4216 15.08870549 23371,6917.787,95.436,540.748,538.556,0.0
54198.0,STARLINK-5246,PAYLOAD,2023-03-29 04:18:41,15.08858089,0.000145,53.2165,146.5998,107.6474,252.4677,0.0003495,5.281e-05,0.0,0 STARLINK-5246,1 54198U 22141AT  23088.17964430  .00005281  00000-0  34950-3 0  9992,2 54198  53.2165 146.5998 0001450 107.6474 252.4677 15.08858089 23710,6917.825,95.436,540.693,538.687,0.0
54198.0,STARLINK-5246,PAYLOAD,2023-03-29 10:40:13,15.08847949,0.0001657,53.217,145.4123,106.3985,253.719,3.9375e-05,3.39e-06,0.0,0 STARLINK-5246,1 54198U 22141AT  23088.44460601  .00000339  00000-0  39375-4 0  9999,2 54198  53.2170 145.4123 0001657 106.3985 253.7190 15.08847949 23522,6917.856,95.437,540.867,538.575,0.0
54198.0,STARLINK-5246,PAYLOAD,2023-03-29 20:12:32,15.08847609,0.0001424,53.217,143.6279,100.4386,259.6767,4.9912e-05,5.07e-06,0.0,0 STARLINK-5246,1 54198U 22141AT  23088.84204535  .00000507  00000-0  49912-4 0  9990,2 54198  53.2170 143.6279 0001424 100.4386 259.6767 15.08847609 23816,6917.857,95.437,540.707,538.737,0.0
54198.0,STARLINK-5246,PAYLOAD,2023-03-30 04:09:28,15.0883962,0.0001455,53.2194,142.1429,104.175,255.9404,-7.2498e-05,-1.442e-05,0.0,0 STARLINK-5246,1 54198U 22141AT  23089.17324864 -.00001442  00000-0 -72498-4 0  9991,2 54198  53.2194 142.1429 0001455 104.1750 255.9404 15.08839620 23869,6917.882,95.438,540.753,538.74,0.0
54198.0,STARLINK-5246,PAYLOAD,2023-03-30 20:03:19,15.08850698,0.0001639,53.2196,139.1719,106.1076,254.0096,-7.8184e-05,-1.533e-05,0.0,0 STARLINK-5246,1 54198U 22141AT  23089.83564557 -.00001533  00000-0 -78184-4 0  9998,2 54198  53.2196 139.1719 0001639 106.1076 254.0096 15.08850698 23737,6917.848,95.437,540.847,538.579,0.0
54198.0,STARLINK-5246,PAYLOAD,2023-03-31 10:21:47,15.08846113,0.0001584,53.2199,136.4931,100.5933,259.5238,0.00017571,2.51e-05,0.0,0 STARLINK-5246,1 54198U 22141AT  23090.43180314  .00002510  00000-0  17571-3 0  9997,2 54198  53.2199 136.4931 0001584 100.5933 259.5238 15.08846113 24056,6917.862,95.437,540.822,538.631,0.0
54198.0,STARLINK-5246,PAYLOAD,2023-04-01 03:51:03,15.08834061,0.000176,53.2203,133.2216,97.2785,262.8407,8.3958e-05,1.048e-05,0.0,0 STARLINK-5246,1 54198U 22141AT  23091.16045390  .00001048  00000-0  83958-4 0  9990,2 54198  53.2203 133.2216 0001760  97.2785 262.8407 15.08834061 24162,6917.899,95.438,540.981,538.546,0.0
54198.0,STARLINK-5246,PAYLOAD,2023-04-01 10:12:34,15.08873359,0.0001469,53.2195,132.0319,101.281,258.8347,-0.00049375,-8.145e-05,0.0,0 STARLINK-5246,1 54198U 22141AT  23091.42540159 -.00008145  00000-0 -49375-3 0  9993,2 54198  53.2195 132.0319 0001469 101.2810 258.8347 15.08873359 24200,6917.778,95.435,540.66,538.627,0.0
54198.0,STARLINK-5246,PAYLOAD,2023-04-01 19:44:54,15.08836439,0.0001634,53.2186,130.2468,84.2637,275.8541,1.9772e-05,2.7e-07,0.0,0 STARLINK-5246,1 54198U 22141AT  23091.82285516  .00000027  00000-0  19772-4 0  9998,2 54198  53.2186 130.2468 0001634  84.2637 275.8541 15.08836439 24265,6917.891,95.438,540.887,538.626,0.0
54198.0,STARLINK-5246,PAYLOAD,2023-04-02 11:38:45,15.08844118,0.0001448,53.2184,127.2721,86.6268,273.489,-1.0374e-06,-3.04e-06,0.0,0 STARLINK-5246,1 54198U 22141AT  23092.48525050 -.00000304  00000-0 -10374-5 0  9991,2 54198  53.2184 127.2721 0001448  86.6268 273.4890 15.08844118 24130,6917.868,95.437,540.735,538.731,0.0
54198.0,STARLINK-5246,PAYLOAD,2023-04-02 19:35:41,15.08846442,0.0001495,53.2189,125.7862,83.3937,276.7225,-4.9932e-06,-3.67e-06,0.0,0 STARLINK-5246,1 54198U 22141AT  23092.81644853 -.00000367  00000-0 -49932-5 0  9992,2 54198  53.2189 125.7862 0001495  83.3937 276.7225 15.08846442 24414,6917.861,95.437,540.76,538.691,0.0
54198.0,STARLINK-5246,PAYLOAD,2023-04-03 08:18:46,15.08835568,0.0001729,53.2189,123.4083,89.7243,270.3948,0.00018503,2.658e-05,0.0,0 STARLINK-5246,1 54198U 22141AT  23093.34637216  .00002658  00000-0  18503-3 0  9997,2 54198  53.2189 123.4083 0001729  89.7243 270.3948 15.08835568 24491,6917.894,95.438,540.955,538.563,0.0
54198.0,STARLINK-5246,PAYLOAD,2023-04-03 19:26:28,15.08841427,0.000154,53.2185,121.3273,81.8277,278.289,0.00010842,1.438e-05,0.0,0 STARLINK-5246,1 54198U 22141AT  23093.81005034  .00001438  00000-0  10842-3 0  9999,2 54198  53.2185 121.3273 0001540  81.8277 278.2890 15.08841427 24333,6917.876,95.437,540.806,538.676,0.0
54198.0,STARLINK-5246,PAYLOAD,2023-04-04 08:09:33,15.08842186,0.0001572,53.2187,118.9485,83.1956,276.9215,3.5683e-05,2.8e-06,0.0,0 STARLINK-5246,1 54198U 22141AT  23094.33997239  .00000280  00000-0  35683-4 0  9999,2 54198  53.2187 118.9485 0001572  83.1956 276.9215 15.08842186 24414,6917.874,95.437,540.826,538.651,0.0
54198.0,STARLINK-5246,PAYLOAD,2023-04-05 01:38:48,15.08840509,0.0001503,53.2177,115.6768,88.2934,271.823,2.011e-05,3.2e-07,0.0,0 STARLINK-5246,1 54198U 22141AT  23095.06861277  .00000032  00000-0  20110-4 0  9996,2 54198  53.2177 115.6768 0001503  88.2934 271.8230 15.08840509 24752,6917.879,95.438,540.784,538.704,0.0
54198.0,STARLINK-5246,PAYLOAD,2023-04-05 06:24:57,15.08839199,0.000145,53.2176,114.7842,91.5147,268.6011,4.7277e-06,-2.13e-06,0.0,0 STARLINK-5246,1 54198U 22141AT  23095.26733348 -.00000213  00000-0  47277-5 0  9991,2 54198  53.2176 114.7842 0001450  91.5147 268.6011 15.08839199 24550,6917.883,95.438,540.751,538.745,0.0
54198.0,STARLINK-5246,PAYLOAD,2023-04-06 04:40:21,15.08838227,0.0001395,53.2175,110.6208,101.0676,259.0473,3.0871e-05,2.03e-06,0.0,0 STARLINK-5246,1 54198U 22141AT  23096.19469302  .00000203  00000-0  30871-4 0  9999,2 54198  53.2175 110.6208 0001395 101.0676 259.0473 15.08838227 24920,6917.886,95.438,540.716,538.786,0.0
54198.0,STARLINK-5246,PAYLOAD,2023-04-06 07:51:07,15.0883915,0.0001466,53.2183,110.0263,105.758,254.3574,3.3004e-05,2.37e-06,0.0,0 STARLINK-5246,1 54198U 22141AT  23096.32717227  .00000237  00000-0  33004-4 0  9994,2 54198  53.2183 110.0263 0001466 105.7580 254.3574 15.08839150 24711,6917.883,95.438,540.762,538.734,0.0
54198.0,STARLINK-5246,PAYLOAD,2023-04-06 17:23:26,15.08842202,0.0001425,53.2188,108.243,102.6758,257.4394,6.6052e-05,7.63e-06,0.0,0 STARLINK-5246,1 54198U 22141AT  23096.72460932  .00000763  00000-0  66052-4 0  9999,2 54198  53.2188 108.2430 0001425 102.6758 257.4394 15.08842202 24771,6917.874,95.437,540.724,538.753,0.0
54198.0,STARLINK-5246,PAYLOAD,2023-04-07 04:31:07,15.08847937,0.0001237,53.218,106.1608,92.7566,267.3568,0.00013711,1.895e-05,0.0,0 STARLINK-5246,1 54198U 22141AT  23097.18828249  .00001895  00000-0  13711-3 0  9999,2 54198  53.2180 106.1608 0001237  92.7566 267.3568 15.08847937 25071,6917.856,95.437,540.577,538.865,0.0
54198.0,STARLINK-5246,PAYLOAD,2023-04-07 06:06:30,15.08848785,0.0001257,53.218,105.8635,93.2569,266.8567,0.00014394,2.004e-05,0.0,0 STARLINK-5246,1 54198U 22141AT  23097.25452161  .00002004  00000-0  14394-3 0  9994,2 54198  53.2180 105.8635 0001257  93.2569 266.8567 15.08848785 24858,6917.854,95.437,540.588,538.849,0.0
